XRISM                   
1 57800U 23137A   23272.56455802  .00005213  00000+0  42412-3 0  9993
2 57800  31.0031 233.7111 0010018 141.7912 218.3434 14.98020695  3308
